OBJECT_NAME,OBJECT_ID,NORAD_CAT_ID,EPOCH,MEAN_MOTION,ECCENTRICITY,INCLINATION,RA_OF_ASC_NODE,ARG_OF_PERICENTER,MEAN_ANOMALY,MEAN_MOTION_DOT,MEAN_MOTION_DDOT,REV_AT_EPOCH,BSTAR,orbital_period_min,altitude_estimated,drag_index,energy_index,orbit_type,orbit_family,anomaly_score,anomaly_flag
STARLINK-3717,2022-029J,52096,2025-10-13 15:47:36.472992,15.08838367,0.00016925,53.2168,19.171,90.2478,269.8708,-2e-07,0.0,19858,1.6836319e-05,95.43765796883397,546.885380396312,2.8495469907499997e-09,0.00219626412002704,LEO,LEO,-0.26535349855914175,1
STARLINK-3665,2022-029L,52098,2025-10-13 16:23:21.737472,15.08838251,0.00014228,53.2153,29.0568,89.3335,270.782,-8.13e-06,0.0,19846,-3.3024403e-05,95.43766530611371,546.8857349625696,-4.69871205884e-09,0.002196264457726124,LEO,LEO,-0.2693740417493859,1
STARLINK-3702,2022-029N,52100,2025-10-13 16:12:46.077984,15.08835031,0.0001551,53.2191,29.0892,80.9172,279.1996,-6.6e-07,0.0,19846,1.3930655e-05,95.43786897932912,546.8955772509071,2.1606445905e-09,0.002196273831817996,LEO,LEO,-0.2685570274038687,1
STARLINK-3703,2022-029P,52101,2025-10-13 16:28:41.393280,15.08835317,0.00013539,53.2156,29.2333,85.544,274.5707,2.093e-05,0.0,19845,0.00014955477,95.43785088906426,546.8947030586623,2.02482203103e-08,0.002196272999209892,LEO,LEO,-0.26919047915320465,1
STARLINK-3709,2022-029Q,52102,2025-10-13 16:15:27.723744,15.08838691,0.00016111,53.2181,19.0825,103.2982,256.819,3.16e-06,0.0,19859,3.7969085e-05,95.43763747505862,546.8843900563224,6.11719928435e-09,0.0021962631767989764,LEO,LEO,-0.26409107640698887,1
STARLINK-3705,2022-029R,52103,2025-10-13 12:26:13.186752,15.08837595,0.00013204,53.2179,19.7985,89.036,271.0784,-1.49e-06,0.0,19856,8.71048e-06,95.4377067997169,546.8877400967331,1.1501317791999998e-09,0.0021962663674741346,LEO,LEO,-0.2671304902604143,1
STARLINK-3706,2022-029T,52105,2025-10-13 15:27:46.008864,15.08840604,0.00017534,53.2214,19.2323,108.6517,251.4666,-1.82e-06,0.0,19858,6.662614e-06,95.43751647341007,546.8785427783532,1.1682227387600001e-09,0.0021962576076901084,LEO,LEO,-0.26326676184027076,1
STARLINK-3670,2022-029U,52106,2025-10-13 15:56:53.884320,15.08818893,0.00014468,53.2199,29.1395,77.9566,282.1588,-2.867e-05,0.0,19845,-0.00016218839,95.4388897620995,546.9449053712133,-2.34654162652e-08,0.002196320813807432,LEO,LEO,-0.26545127809291946,1
STARLINK-3658,2022-029V,52107,2025-10-13 12:10:15.962016,15.08869758,0.00011573,53.2182,19.8501,90.4833,269.6292,3.87e-05,0.0,19856,0.00026090851,95.43567245384476,546.7894321578806,3.01949418623e-08,0.0021961727374415372,LEO,LEO,-0.26615205024383903,1
STARLINK-3698,2022-029W,52108,2025-10-13 15:31:40.323936,15.08853375,0.00012513,53.2185,19.2216,81.0497,279.0636,1.754e-05,0.0,19858,0.00012821516,95.43670868615713,546.839507241848,1.60435629708e-08,0.0021962204294093414,LEO,LEO,-0.2652856603620036,1
STARLINK-3687,2022-029Y,52110,2025-10-13 15:26:24.174240,15.08834916,0.00016388,53.2182,19.2357,88.503,271.615,-7.37e-06,0.0,19858,-2.8240534e-05,95.43787625338861,546.8959287618527,-4.628058711920001e-09,0.0021962741666081012,LEO,LEO,-0.26512020237356565,1
STARLINK-3708,2022-029Z,52111,2025-10-13 23:02:07.371456,15.08834701,7.722e-05,53.2173,17.819,85.9965,274.1115,-5.37e-06,0.0,19863,-1.5674841e-05,95.43788985272019,546.896585934609,-1.2104112220199999e-09,0.0021962747925202432,LEO,LEO,-0.26353124581737025,1
STARLINK-3734,2022-029AA,52112,2025-10-13 15:15:48.048192,15.08831464,0.00015591,53.2192,19.2718,91.3404,268.7767,1.333e-05,0.0,19858,0.00010186698,95.43809460219475,546.9064802242292,1.58820808518e-08,0.002196284216169337,LEO,LEO,-0.2659953254815826,1
STARLINK-3736,2022-029AB,52113,2025-10-13 22:51:31.362912,15.08840012,0.00012624,53.2186,17.8477,86.566,273.5477,5.21e-06,0.0,19863,5.0798634e-05,95.43755391873847,546.8803522849048,6.4128195561600004e-09,0.0021962593311130674,LEO,LEO,-0.26528048699797513,1
STARLINK-3737,2022-029AC,52114,2025-10-13 23:07:25.757184,15.08834464,0.00011712,53.2182,17.8008,90.8198,269.2928,-5.21e-06,0.0,19863,-1.462626e-05,95.43790484361577,546.8973103531298,-1.7130275712e-09,0.002196275482479518,LEO,LEO,-0.26450324413099663,1
STARLINK-3685,2022-029AD,52115,2025-10-13 22:40:55.434720,15.08841369,0.00012305,53.2183,17.8805,91.9372,268.1761,3.9e-07,0.0,19863,2.0506659e-05,95.437468085487,546.8762044819441,2.5233443899500002e-09,0.0021962553806347293,LEO,LEO,-0.2652872917101624,1
STARLINK-3735,2022-029AE,52116,2025-10-13 22:56:48.933024,15.08861433,9.268e-05,53.2188,17.8347,95.4134,264.6964,-4.078e-05,0.0,19863,-0.0002381158,95.4361990111255,546.8148776329926,-2.2068572344e-08,0.0021961969718583985,LEO,LEO,-0.26373146893783816,1
STARLINK-3738,2022-029AF,52117,2025-10-13 16:08:47.208768,15.0883977,0.00015359,53.219,19.1041,97.5275,262.5891,6.94e-06,0.0,19860,6.1708697e-05,95.43756922578996,546.8810919821799,9.47783877223e-09,0.0021962600356210094,LEO,LEO,-0.2664979728518234,1
STARLINK-3743,2022-029AG,52118,2025-10-13 22:46:12.979776,15.0884699,0.0001289,53.2176,17.8661,92.6011,267.5129,2.44e-06,0.0,19863,3.3421824e-05,95.43711254644846,546.8590234129779,4.3080731136e-09,0.0021962390169761458,LEO,LEO,-0.2653382399832135,1
STARLINK-3558,2022-029AH,52119,2025-10-13 12:47:25.030176,15.08838661,0.00016954,53.2197,19.7317,96.9122,263.2063,8.4e-07,0.0,19857,2.3376654e-05,95.43763937263004,546.8844817544541,3.96327791916e-09,0.0021962632641348823,LEO,LEO,-0.2664597111953751,1
STARLINK-3534,2022-029AJ,52120,2025-10-13 16:14:05.102016,15.08832801,0.00014409,53.2179,19.0854,113.3405,246.7739,1.848e-05,0.0,19860,0.00013416857,95.43801003302818,546.9023935145888,1.93323492513e-08,0.002196280323848473,LEO,LEO,-0.26269653178823194,1
STARLINK-3678,2022-029AK,52121,2025-10-13 15:33:00.505728,15.0884604,5.842e-05,53.2187,9.2156,77.8852,282.2206,4.56e-06,0.0,19872,4.6696646e-05,95.4371726355858,546.8619271620282,2.72801805932e-09,0.002196241782570073,LEO,LEO,-0.2595213444987471,1
STARLINK-3726,2022-029AL,52122,2025-10-13 16:03:29.053728,15.08839082,0.00015773,53.2191,19.1181,100.4449,259.6721,-2.16e-06,0.0,19859,4.518134e-06,95.43761274338465,546.883194924274,7.126452758199999e-10,0.002196262038521474,LEO,LEO,-0.2659670194064929,1
STARLINK-3725,2022-029AM,52123,2025-10-13 22:54:11.320416,15.08844163,0.00014719,53.2181,7.6644,93.7833,266.3328,8.7e-06,0.0,19878,7.2728783e-05,95.43729135929328,546.8676643677927,1.070494956977e-08,0.0021962472468168006,LEO,LEO,-0.2636833438186916,1
STARLINK-3727,2022-029AP,52125,2025-10-13 12:06:20.652480,15.08843419,0.00012528,53.2191,9.8581,93.2716,266.8419,-9.48e-06,0.0,19871,-4.1468971e-05,95.4373384187455,546.8699384686297,-5.19523268688e-09,0.0021962494127252493,LEO,LEO,-0.26312083663575847,1
STARLINK-3732,2022-029AQ,52126,2025-10-13 15:27:43.056576,15.08839536,0.00013785,53.2193,9.2282,89.0899,271.0251,-7.08e-06,0.0,19872,-2.6405268e-05,95.43758402682789,546.8818072268414,-3.6399661937999995e-09,0.0021962607168397557,LEO,LEO,-0.2628732076079085,1
STARLINK-3715,2022-029AR,52127,2025-10-13 23:08:44.540160,15.08836551,0.00013007,53.2174,7.7936,86.3808,273.7333,1.162e-05,0.0,19877,9.1115779e-05,95.43777283534273,546.8909311973921,1.1851429374530001e-08,0.0021962694067733605,LEO,LEO,-0.2633545310483046,1
STARLINK-3661,2022-029AT,52129,2025-10-13 22:58:09.107040,15.08844362,0.00015374,53.2187,7.8288,88.8473,271.2695,6.57e-06,0.0,19878,5.9360673e-05,95.43727877216273,546.8670561072686,9.12610986702e-09,0.0021962466674950573,LEO,LEO,-0.26296894945282334,1
STARLINK-3711,2022-029AV,52131,2025-10-13 22:52:51.040992,15.08838583,0.00012156,53.2189,7.8446,100.6511,259.4618,3.38e-06,0.0,19878,3.9324723e-05,95.4376443063161,546.8847201696126,4.78031332788e-09,0.0021962634912082632,LEO,LEO,-0.2634575233046091,1
STARLINK-3718,2022-029AW,52132,2025-10-13 15:06:31.321152,15.08842753,0.00014042,53.2189,9.297,95.8646,264.2507,-3.29e-06,0.0,19873,-2.606024e-06,95.43738054458481,546.8719741572513,-3.6593789007999993e-10,0.0021962513515653686,LEO,LEO,-0.2639991678762196,1
STARLINK-3707,2022-029AX,52133,2025-10-13 22:42:14.620320,15.08831844,0.00011541,53.2158,7.8798,87.1601,272.9523,-1.821e-05,0.0,19878,-9.6348076e-05,95.43807056606634,546.9053187055433,-1.111953145116e-08,0.0021962831098990784,LEO,LEO,-0.26227167744404906,1
STARLINK-3721,2022-029AY,52134,2025-10-13 22:47:33.352512,15.08839816,0.00016194,53.2204,7.8624,87.8935,272.2243,7.29e-06,0.0,19878,6.3871498e-05,95.43756631618474,546.88095137855,1.0343350386120002e-08,0.0021962599017062504,LEO,LEO,-0.26294739879645707,1
STARLINK-3729,2022-029AZ,52135,2025-10-13 22:27:44.654400,15.08834618,0.00016367,53.2206,7.9356,95.7191,264.3988,1.12e-06,0.0,19878,2.5147774e-05,95.43789510269573,546.8968396338996,4.11593617058e-09,0.002196275034151513,LEO,LEO,-0.2634055447236647,1
STARLINK-3720,2022-029BA,52136,2025-10-13 22:36:57.378528,15.0884146,0.00017014,53.2203,7.8947,83.363,276.7556,-1.022e-05,0.0,19878,-4.6108035e-05,95.43746232954123,546.8759263317843,-7.8448210749e-09,0.0021962551157172555,LEO,LEO,-0.26119795706664,1
STARLINK-3733,2022-029BB,52137,2025-10-13 12:48:45.017568,15.08829771,0.00013559,53.2193,9.7304,95.513,264.6017,-5.19e-06,0.0,19872,-1.4551429e-05,95.43820168961923,546.9116551015659,-1.97302825811e-09,0.0021962891449046197,LEO,LEO,-0.26335057094109054,1
STARLINK-3723,2022-029BC,52138,2025-10-13 22:31:39.649440,15.08837669,0.00014036,53.219,7.9131,94.477,265.6382,-3.64e-06,0.0,19878,-4.798706e-06,95.43770211903424,546.8875139077454,-6.735463741599999e-10,0.002196266152045118,LEO,LEO,-0.2641910260087527,1
STARLINK-3730,2022-029BD,52139,2025-10-13 15:42:17.244864,15.0884154,0.00014348,53.2181,19.1833,88.9769,271.1387,6.68e-06,0.0,19859,6.0039453e-05,95.43745726936972,546.8756818041938,8.61446071644e-09,0.002196254882822813,LEO,LEO,-0.2661806005942674,1
STARLINK-3682,2022-029BE,52140,2025-10-13 22:15:44.895744,15.08842245,0.00011856,53.2171,7.9628,82.3676,277.7451,-5.89e-06,0.0,19878,-1.8930246e-05,95.43741267663141,546.8735269057379,-2.24436996576e-09,0.002196252830442141,LEO,LEO,-0.26194861559149996,1
